LEMUR-1                 
1 40044U 14033AL  26204.87430021  .00001493  00000+0  17657-3 0  9997
2 40044  97.7919 353.8760 0047119 319.0161  40.7516 14.85356761650911
LEMUR-2-GREENBERG       
1 42837U 17042N   26203.94901048  .00019439  00000+0  62365-3 0  9996
2 42837  97.3839  24.4400 0007639 227.5103 132.5494 15.32339048493860
LEMUR-2-ANDIS           
1 42838U 17042P   26204.73948211  .00020390  00000+0  57885-3 0  9997
2 42838  97.3690  25.5454 0007659 223.6728 136.3911 15.36203727494066
LEMUR-2-MONSON          
1 42839U 17042Q   26204.10184621  .00017282  00000+0  61671-3 0  9990
2 42839  97.4103  24.5078 0005861 213.0819 147.0055 15.28924414493651
LEMUR-2-FURIAUS         
1 42840U 17042R   26203.96709052  .00020637  00000+0  68330-3 0  9993
2 42840  97.3787  22.3327 0005636 296.2967  63.7695 15.31323478493684
LEMUR-2-PETERG          
1 42841U 17042S   26204.74538821  .00022017  00000+0  64355-3 0  9992
2 42841  97.4004  29.8759 0003998 186.4716 173.6477 15.35293489494042
LEMUR-2-DEMBITZ         
1 42842U 17042T   26204.64043148  .00017253  00000+0  57215-3 0  9998
2 42842  97.3836  26.0520 0005387 236.4726 123.6001 15.31312059493926
LEMUR-2-ZACHARY         
1 42845U 17042W   26204.04218123  .00060078  00000+0  94824-3 0  9992
2 42845  97.3580  36.5204 0003078 214.2552 145.8503 15.53318099494766
LEMUR-2-AMANDA-SVANTE   
1 48269U 21034B   26204.85383179  .00034311  00000+0  96538-3 0  9992
2 48269  97.5743 284.1606 0004713 124.3186 235.8504 15.36396885286684
LEMUR-2-SPECIAL-K       
1 48273U 21034F   26204.71246435  .00369802  00000+0  20362-2 0  9992
2 48273  97.5612 294.5801 0005911 212.3659 147.7245 15.78680294287422
LEMUR-2-EMBRIONOVIS     
1 56970U 23084AQ  26204.37613381  .00014130  00000+0  37474-3 0  9996
2 56970  97.6330 349.9973 0008967 176.9139 183.2162 15.38397436173246
LEMUR-2-DEVERILL-M-T    
1 57391U 23100F   26204.41116637  .00026252  00000+0  62916-3 0  9997
2 57391  99.4452 253.6815 0004991 262.7804  97.2868 15.41409931166822
LEMUR-2-BASS            
1 58259U 23174D   26204.70525804  .00017794  00000+0  38879-3 0  9996
2 58259  97.3838 289.9560 0007054  51.5132 308.6748 15.44217432150994
LEMUR-2-JK0903EM1407    
1 58336U 23174CJ  26204.23650119  .00028584  00000+0  45247-3 0  9994
2 58336  97.3918 295.7684 0002921 357.9462   2.1779 15.53397670151329
LEMUR-2-MJR092620       
1 58340U 23174CN  26204.22207084  .00020843  00000+0  42714-3 0  9993
2 58340  97.3967 294.9463 0004519 359.5789   0.5456 15.46089805151211
LEMUR-2-NIMBUS2000      
1 58899U 24022A   26204.38418389  .00022052  00000+0  52874-3 0  9996
2 58899  97.4082  54.8710 0007847 359.5902   0.5337 15.41383552137843
LEMUR-2-VALHALLA        
1 58900U 24022B   26204.52244678  .00016565  00000+0  40720-3 0  9992
2 58900  97.4083  54.9723 0008331 354.2117   5.9031 15.40683975137864
LEMUR-2-CAEL            
1 58903U 24022E   26204.82507831  .00017434  00000+0  40928-3 0  9997
2 58903  97.4061  56.2815 0006189 336.4214  23.6748 15.42082327137980
LEMUR-2-JOHNNYTRUONG    
1 59146U 24043BA  26204.34972753  .00048593  00000+0  53296-3 0  9998
2 59146  97.5396 358.3729 0003596  67.1091 293.0546 15.63096316133680
LEMUR-2-TOMATOKECHUP    
1 60471U 24149D   26204.18932006  .00011667  00000+0  32750-3 0  9991
2 60471  97.3787 286.3428 0003458 108.0349 252.1272 15.36706847107690
LEMUR-2-STELLA          
1 60533U 24149BT  26204.67462201  .00010915  00000+0  63017-3 0  9994
2 60533  97.6726 287.3056 0001471 123.3279 236.8092 15.12506941106019
LEMUR-2-MARHISYAM       
1 60536U 24149BW  26204.66888661  .00009618  00000+0  56530-3 0  9998
2 60536  97.6870 287.7849 0001901  54.1979 305.9428 15.11897127105997
LEMUR-2-AHMED-ASRAR     
1 60576U 24149DN  26204.66679494  .00012034  00000+0  67638-3 0  9991
2 60576  97.6993 290.0198 0001927 179.8683 180.2548 15.13447299106087
LEMUR-2-LLOYD           
1 60577U 24149DP  26204.69818696  .00010403  00000+0  64595-3 0  9991
2 60577  97.6740 285.8607 0004099  49.3077 310.8508 15.09872233105908
LEMUR-2-SQUIRRELCOMM    
1 60578U 24149DQ  26204.50077691  .00006206  00000+0  41276-3 0  9991
2 60578  97.6705 285.3042 0003886 288.6334  71.4471 15.07513592105878
LEMUR-2-SIERRINI        
1 60579U 24149DR  26204.50065196  .00011944  00000+0  70551-3 0  9992
2 60579  97.6835 287.2691 0006023  68.6196 291.5676 15.11643901105945
LEMUR-2-WILSON          
1 62694U 25009CP  26204.16513441  .00002251  00000+0  20949-3 0  9998
2 62694  97.7016 281.9988 0001537 276.7410  83.3636 14.95300842 82732
LEMUR-2-STAR-FOX        
1 62696U 25009CR  26204.64917868  .00008175  00000+0  61289-3 0  9997
2 62696  97.6907 285.9951 0001381   5.9898 354.1343 15.02931306 83037
LEMUR-2-ARIANNA         
1 62699U 25009CU  26204.18158072  .00008151  00000+0  61112-3 0  9992
2 62699  97.6849 285.2770 0001755  20.3119 339.8175 15.02927089 82966
LEMUR-2-ALISIA          
1 62706U 25009DB  26204.21874426  .00007720  00000+0  57394-3 0  9991
2 62706  97.6960 286.1551 0005036 108.8576 251.3196 15.03260205105576
